STARLINK-6044           
1 56479U 23064AH  26197.94052206  .00003308  00000+0  28505-3 0  9995
2 56479  70.0001 158.4121 0003066 272.7761  87.3047 14.98313484175108
STARLINK-6214           
1 56480U 23064AJ  26198.17084166  .00031344  00000+0  85180-3 0  9996
2 56480  69.9911 109.2054 0004479 257.8792 102.1885 15.37425176176353
STARLINK-6222           
1 56481U 23064AK  26198.28265915  .00000301  00000+0  33061-4 0  9993
2 56481  70.0001 157.6002 0003342 268.0518  92.0258 14.98328133175154
STARLINK-6220           
1 56482U 23064AL  26197.96137644  .00000069  00000+0  13549-4 0  9995
2 56482  69.9998 158.4861 0003023 269.4726  90.6086 14.98329263175104
STARLINK-5868           
1 56483U 23064AM  26198.29100252 -.00000223  00000+0 -10878-4 0  9994
2 56483  70.0000 157.6259 0003251 266.1005  93.9783 14.98327740175154
STARLINK-6221           
1 56484U 23064AN  26198.28684885  .00000361  00000+0  38047-4 0  9992
2 56484  70.0000 157.6149 0003510 266.1021  93.9737 14.98328506175148
STARLINK-6210           
1 56485U 23064AP  26197.93632972  .00000939  00000+0  86497-4 0  9997
2 56485  70.0029 158.4005 0002863 217.8021 142.2938 14.98338522175109
STARLINK-6196           
1 56487U 23064AR  26198.25320981 -.00002935  00000+0 -23828-3 0  9997
2 56487  70.0000 137.6327 0003042 267.1572  92.9239 14.98337827175646
STARLINK-6204           
1 56488U 23064AS  26198.22819424 -.00000427  00000+0 -27994-4 0  9993
2 56488  70.0002 137.9428 0002790 265.8366  94.2474 14.98329432175637
STARLINK-5923           
1 56489U 23064AT  26198.01538966 -.00000293  00000+0 -16772-4 0  9993
2 56489  70.0002 138.4032 0002741 271.4755  88.6090 14.98331488175608
STARLINK-5873           
1 56490U 23064AU  26198.23654032  .00000347  00000+0  36856-4 0  9995
2 56490  70.0004 137.9711 0003044 261.4148  98.6666 14.98329726175637
STARLINK-5842           
1 56491U 23064AV  26198.27825586 -.00000650  00000+0 -46713-4 0  9996
2 56491  70.0004 137.7151 0002778 266.4008  93.6833 14.98331039175649
STARLINK-5846           
1 56492U 23064AW  26198.27408878  .00000670  00000+0  63997-4 0  9991
2 56492  70.0001 137.7003 0002963 272.3847  87.6973 14.98317933175641
STARLINK-5841           
1 56493U 23064AX  26198.19457480  .00000291  00000+0  32177-4 0  9991
2 56493  70.0002 117.9429 0002761 268.5957  91.4886 14.98330900176129
STARLINK-5530           
1 56494U 23064AY  26198.27424921  .00000607  00000+0  58638-4 0  9996
2 56494  70.0002 137.7010 0002876 272.2889  87.7941 14.98318246175633
STARLINK-5529           
1 56495U 23064AZ  26198.26573278  .00000114  00000+0  17368-4 0  9994
2 56495  70.0004 137.6715 0002898 271.6871  88.3957 14.98329180175649
STARLINK-5526           
1 56496U 23064BA  26197.99451687  .00000015  00000+0  90778-5 0  9990
2 56496  70.0002 138.3305 0004177 264.0082  96.0601 14.98332117175605
STARLINK-5527           
1 56497U 23064BB  26198.25755088 -.00000967  00000+0 -73229-4 0  9992
2 56497  69.9999 137.6434 0003417 261.7820  98.2952 14.98324716175646
STARLINK-5522           
1 56498U 23064BC  26197.93611798  .00000412  00000+0  42305-4 0  9990
2 56498  69.9999 138.5278 0002890 269.8556  90.2272 14.98321841175599
STARLINK-5775           
1 56503U 23065A   26197.31485558  .00000212  00000+0  17226-4 0  9995
2 56503  43.0008 205.8811 0001311 270.2637  89.8064 15.27575026176272
STARLINK-5716           
1 56504U 23065B   26198.04824289 -.00007641  00000+0 -26829-3 0  9998
2 56504  42.9998 201.9207 0001443 271.5427  88.5260 15.27594094176384
STARLINK-5763           
1 56505U 23065C   26198.00855155  .00000220  00000+0  17530-4 0  9995
2 56505  43.0041 202.4837 0001558 282.8606  77.2072 15.27580258176374
STARLINK-5340           
1 56506U 23065D   26197.99057471  .00000247  00000+0  18514-4 0  9990
2 56506  43.0013 191.0361 0001508 264.6333  95.4346 15.27576916176506
STARLINK-5333           
1 56507U 23065E   26198.27027510 -.00000480  00000+0 -79143-5 0  9991
2 56507  43.0005 167.9243 0001031 275.5145  84.5589 15.27574914176797
STARLINK-5335           
1 56508U 23065F   26198.01998355  .00000811  00000+0  38983-4 0  9990
2 56508  43.0017 201.7093 0001653 272.3592  87.7070 15.27585749176385
STARLINK-5334           
1 56509U 23065G   26198.03154891  .00000935  00000+0  43504-4 0  9994
2 56509  43.0004 201.7910 0001312 274.5062  85.5639 15.27566275176388
STARLINK-5339           
1 56510U 23065H   26197.04303185  .00001289  00000+0  56340-4 0  9993
2 56510  43.0006 207.2800 0001713 271.1660  88.8995 15.27586398176236
STARLINK-5351           
1 56511U 23065J   26198.29950545 -.00000331  00000+0 -25143-5 0  9997
2 56511  43.0012 200.3588 0001189 269.9586  90.1129 15.27575670176427
STARLINK-5349           
1 56512U 23065K   26198.28922636  .00000108  00000+0  13450-4 0  9994
2 56512  43.0015 200.2809 0001252 269.5945  90.4764 15.27576462176420
STARLINK-5329           
1 56513U 23065L   26198.30336480 -.00000662  00000+0 -14544-4 0  9996
2 56513  43.0004 200.3919 0001008 273.1600  86.9136 15.27572650176428
