OBJECT_NAME,OBJECT_ID,EPOCH,MEAN_MOTION,ECCENTRICITY,INCLINATION,RA_OF_ASC_NODE,ARG_OF_PERICENTER,MEAN_ANOMALY,EPHEMERIS_TYPE,CLASSIFICATION_TYPE,NORAD_CAT_ID,ELEMENT_SET_NO,REV_AT_EPOCH,BSTAR,MEAN_MOTION_DOT,MEAN_MOTION_DDOT
STARLINK-6044,2023-064AH,2026-07-16T22:34:21.105984,14.98313484,.00030663,70.0001,158.4121,272.7761,87.3047,0,U,56479,999,17510,.2850474E-3,.3308E-4,0
STARLINK-6214,2023-064AJ,2026-07-17T04:06:00.719424,15.37425176,.00044799,69.9911,109.2054,257.8792,102.1885,0,U,56480,999,17635,.85179795E-3,.31344E-3,0
STARLINK-6222,2023-064AK,2026-07-17T06:47:01.750560,14.98328133,.00033429,70.0001,157.6002,268.0518,92.0258,0,U,56481,999,17515,.33060605E-4,.301E-5,0
STARLINK-6220,2023-064AL,2026-07-16T23:04:22.924416,14.98329263,.00030237,69.9998,158.4861,269.4726,90.6086,0,U,56482,999,17510,.13549496E-4,.69E-6,0
STARLINK-5868,2023-064AM,2026-07-17T06:59:02.617728,14.98327740,.00032515,70.0000,157.6259,266.1005,93.9783,0,U,56483,999,17515,-.10878487E-4,-.223E-5,0
STARLINK-6221,2023-064AN,2026-07-17T06:53:03.740640,14.98328506,.00035103,70.0000,157.6149,266.1021,93.9737,0,U,56484,999,17514,.38046762E-4,.361E-5,0
STARLINK-6210,2023-064AP,2026-07-16T22:28:18.887808,14.98338522,.00028635,70.0029,158.4005,217.8021,142.2938,0,U,56485,999,17510,.86496812E-4,.939E-5,0
STARLINK-6196,2023-064AR,2026-07-17T06:04:37.327584,14.98337827,.0003042,70.0000,137.6327,267.1572,92.9239,0,U,56487,999,17564,-.23827745E-3,-.2935E-4,0
STARLINK-6204,2023-064AS,2026-07-17T05:28:35.982336,14.98329432,.00027909,70.0002,137.9428,265.8366,94.2474,0,U,56488,999,17563,-.27993654E-4,-.427E-5,0
STARLINK-5923,2023-064AT,2026-07-17T00:22:09.666624,14.98331488,.00027416,70.0002,138.4032,271.4755,88.6090,0,U,56489,999,17560,-.16772093E-4,-.293E-5,0
STARLINK-5873,2023-064AU,2026-07-17T05:40:37.083648,14.98329726,.00030443,70.0004,137.9711,261.4148,98.6666,0,U,56490,999,17563,.36856479E-4,.347E-5,0
STARLINK-5842,2023-064AV,2026-07-17T06:40:41.306304,14.98331039,.00027787,70.0004,137.7151,266.4008,93.6833,0,U,56491,999,17564,-.46712666E-4,-.65E-5,0
STARLINK-5846,2023-064AW,2026-07-17T06:34:41.270592,14.98317933,.00029632,70.0001,137.7003,272.3847,87.6973,0,U,56492,999,17564,.6399747E-4,.67E-5,0
STARLINK-5841,2023-064AX,2026-07-17T04:40:11.262720,14.98330900,.0002761,70.0002,117.9429,268.5957,91.4886,0,U,56493,999,17612,.32176575E-4,.291E-5,0
STARLINK-5530,2023-064AY,2026-07-17T06:34:55.131744,14.98318246,.00028762,70.0002,137.7010,272.2889,87.7941,0,U,56494,999,17563,.58638281E-4,.607E-5,0
STARLINK-5529,2023-064AZ,2026-07-17T06:22:39.312192,14.98329180,.0002898,70.0004,137.6715,271.6871,88.3957,0,U,56495,999,17564,.17368069E-4,.114E-5,0
STARLINK-5526,2023-064BA,2026-07-16T23:52:06.257568,14.98332117,.00041775,70.0002,138.3305,264.0082,96.0601,0,U,56496,999,17560,.9077839E-5,.15E-6,0
STARLINK-5527,2023-064BB,2026-07-17T06:10:52.396032,14.98324716,.00034175,69.9999,137.6434,261.7820,98.2952,0,U,56497,999,17564,-.7322864E-4,-.967E-5,0
STARLINK-5522,2023-064BC,2026-07-16T22:28:00.593472,14.98321841,.00028903,69.9999,138.5278,269.8556,90.2272,0,U,56498,999,17559,.42305407E-4,.412E-5,0
STARLINK-5775,2023-065A,2026-07-16T07:33:23.522112,15.27575026,.0001311,43.0008,205.8811,270.2637,89.8064,0,U,56503,999,17627,.17226E-4,.212E-5,0
STARLINK-5716,2023-065B,2026-07-17T01:09:28.185696,15.27594094,.00014433,42.9998,201.9207,271.5427,88.5260,0,U,56504,999,17638,-.26829056E-3,-.7641E-4,0
STARLINK-5763,2023-065C,2026-07-17T00:12:18.853920,15.27580258,.00015589,43.0041,202.4837,282.8606,77.2072,0,U,56505,999,17637,.17529925E-4,.22E-5,0
STARLINK-5340,2023-065D,2026-07-16T23:46:25.654944,15.27576916,.00015081,43.0013,191.0361,264.6333,95.4346,0,U,56506,999,17650,.18514195E-4,.247E-5,0
STARLINK-5333,2023-065E,2026-07-17T06:29:11.768640,15.27574914,.00010316,43.0005,167.9243,275.5145,84.5589,0,U,56507,999,17679,-.7914277E-5,-.48E-5,0
STARLINK-5335,2023-065F,2026-07-17T00:28:46.578720,15.27585749,.00016538,43.0017,201.7093,272.3592,87.7070,0,U,56508,999,17638,.38982798E-4,.811E-5,0
STARLINK-5334,2023-065G,2026-07-17T00:45:25.825824,15.27566275,.00013129,43.0004,201.7910,274.5062,85.5639,0,U,56509,999,17638,.43504257E-4,.935E-5,0
STARLINK-5339,2023-065H,2026-07-16T01:01:57.951840,15.27586398,.00017134,43.0006,207.2800,271.1660,88.8995,0,U,56510,999,17623,.56339802E-4,.1289E-4,0
STARLINK-5351,2023-065J,2026-07-17T07:11:17.270880,15.27575670,.00011898,43.0012,200.3588,269.9586,90.1129,0,U,56511,999,17642,-.2514287E-5,-.331E-5,0
STARLINK-5349,2023-065K,2026-07-17T06:56:29.157504,15.27576462,.00012528,43.0015,200.2809,269.5945,90.4764,0,U,56512,999,17642,.13450312E-4,.108E-5,0
STARLINK-5329,2023-065L,2026-07-17T07:16:50.718720,15.27572650,.00010089,43.0004,200.3919,273.1600,86.9136,0,U,56513,999,17642,-.14544223E-4,-.662E-5,0
